{"type": "FeatureCollection", "features": [{"type": "Feature", "properties": {"norad_id": 37846, "name": "GSAT0101 (GALILEO-PFM)", "group": "galileo", "lat": 48.66679809057051, "lon": 118.96004768800165, "alt_km": 23225.066236271134, "timestamp": "2025-12-25T09:48:52.553266+00:00", "meta": {"OBJECT_NAME": "GSAT0101 (GALILEO-PFM)", "OBJECT_ID": "2011-060A", "EPOCH": "2025-12-24T15:10:54.849792", "MEAN_MOTION": 1.70475643, "ECCENTRICITY": 0.0003261, "INCLINATION": 57.05, "RA_OF_ASC_NODE": 346.4975, "ARG_OF_PERICENTER": 321.0017, "MEAN_ANOMALY": 38.9828, "EPHEMERIS_TYPE": 0, "CLASSIFICATION_TYPE": "U", "NORAD_CAT_ID": 37846, "ELEMENT_SET_NO": 999, "REV_AT_EPOCH": 8814, "BSTAR": 0, "MEAN_MOTION_DOT": -6.1e-07, "MEAN_MOTION_DDOT": 0}, "tle": {"line1": "1 37846U 11060A   25358.63257928 -.00000061  00000+0  00000+0 0  9997", "line2": "2 37846  57.0500 346.4975 0003261 321.0017  38.9828  1.70475643 88147"}}, "geometry": {"type": "Point", "coordinates": [118.96004768800165, 48.66679809057051]}}, {"type": "Feature", "properties": {"norad_id": 37847, "name": "GSAT0102 (GALILEO-FM2)", "group": "galileo", "lat": 15.075007721674021, "lon": 156.40570985031917, "alt_km": 23233.653826555903, "timestamp": "2025-12-25T09:48:52.553288+00:00", "meta": {"OBJECT_NAME": "GSAT0102 (GALILEO-FM2)", "OBJECT_ID": "2011-060B", "EPOCH": "2025-12-22T11:58:40.586304", "MEAN_MOTION": 1.70475957, "ECCENTRICITY": 0.00051595, "INCLINATION": 57.0512, "RA_OF_ASC_NODE": 346.5558, "ARG_OF_PERICENTER": 313.0615, "MEAN_ANOMALY": 223.0229, "EPHEMERIS_TYPE": 0, "CLASSIFICATION_TYPE": "U", "NORAD_CAT_ID": 37847, "ELEMENT_SET_NO": 999, "REV_AT_EPOCH": 8811, "BSTAR": 0, "MEAN_MOTION_DOT": -6.5e-07, "MEAN_MOTION_DDOT": 0}, "tle": {"line1": "1 37847U 11060B   25356.49908086 -.00000065  00000+0  00000+0 0  9992", "line2": "2 37847  57.0512 346.5558 0005159 313.0615 223.0229  1.70475957 88119"}}, "geometry": {"type": "Point", "coordinates": [156.40570985031917, 15.075007721674021]}}, {"type": "Feature", "properties": {"norad_id": 38857, "name": "GSAT0103 (GALILEO-FM3)", "group": "galileo", "lat": 55.67955797212758, "lon": -160.51274254852754, "alt_km": 23224.706192933605, "timestamp": "2025-12-25T09:48:52.553303+00:00", "meta": {"OBJECT_NAME": "GSAT0103 (GALILEO-FM3)", "OBJECT_ID": "2012-055A", "EPOCH": "2025-12-22T21:54:43.252704", "MEAN_MOTION": 1.70473351, "ECCENTRICITY": 0.0002995, "INCLINATION": 55.698, "RA_OF_ASC_NODE": 106.3873, "ARG_OF_PERICENTER": 269.858, "MEAN_ANOMALY": 90.0891, "EPHEMERIS_TYPE": 0, "CLASSIFICATION_TYPE": "U", "NORAD_CAT_ID": 38857, "ELEMENT_SET_NO": 999, "REV_AT_EPOCH": 8200, "BSTAR": 0, "MEAN_MOTION_DOT": 1e-07, "MEAN_MOTION_DDOT": 0}, "tle": {"line1": "1 38857U 12055A   25356.91300061  .00000010  00000+0  00000+0 0  9994", "line2": "2 38857  55.6980 106.3873 0002995 269.8580  90.0891  1.70473351 82005"}}, "geometry": {"type": "Point", "coordinates": [-160.51274254852754, 55.67955797212758]}}, {"type": "Feature", "properties": {"norad_id": 40128, "name": "GSAT0201 (GALILEO 5)", "group": "galileo", "lat": 31.228095343153946, "lon": -47.7553355334073, "alt_km": 24020.67680529953, "timestamp": "2025-12-25T09:48:52.553316+00:00", "meta": {"OBJECT_NAME": "GSAT0201 (GALILEO 5)", "OBJECT_ID": "2014-050A", "EPOCH": "2025-12-24T05:54:59.332320", "MEAN_MOTION": 1.85519669, "ECCENTRICITY": 0.16490328, "INCLINATION": 49.0634, "RA_OF_ASC_NODE": 280.5946, "ARG_OF_PERICENTER": 172.7103, "MEAN_ANOMALY": 190.0774, "EPHEMERIS_TYPE": 0, "CLASSIFICATION_TYPE": "U", "NORAD_CAT_ID": 40128, "ELEMENT_SET_NO": 999, "REV_AT_EPOCH": 7507, "BSTAR": 0, "MEAN_MOTION_DOT": -3.7e-07, "MEAN_MOTION_DDOT": 0}, "tle": {"line1": "1 40128U 14050A   25358.24652005 -.00000037  00000+0  00000+0 0  9991", "line2": "2 40128  49.0634 280.5946 1649032 172.7103 190.0774  1.85519669 75070"}}, "geometry": {"type": "Point", "coordinates": [-47.7553355334073, 31.228095343153946]}}, {"type": "Feature", "properties": {"norad_id": 40129, "name": "GSAT0202 (GALILEO 6)", "group": "galileo", "lat": -48.99036931485872, "lon": -175.39312822068524, "alt_km": 21093.634367263367, "timestamp": "2025-12-25T09:48:52.553328+00:00", "meta": {"OBJECT_NAME": "GSAT0202 (GALILEO 6)", "OBJECT_ID": "2014-050B", "EPOCH": "2025-12-23T23:07:46.341984", "MEAN_MOTION": 1.85520106, "ECCENTRICITY": 0.16495716, "INCLINATION": 49.08, "RA_OF_ASC_NODE": 279.6897, "ARG_OF_PERICENTER": 173.4584, "MEAN_ANOMALY": 189.053, "EPHEMERIS_TYPE": 0, "CLASSIFICATION_TYPE": "U", "NORAD_CAT_ID": 40129, "ELEMENT_SET_NO": 999, "REV_AT_EPOCH": 7723, "BSTAR": 0, "MEAN_MOTION_DOT": -3.5e-07, "MEAN_MOTION_DDOT": 0}, "tle": {"line1": "1 40129U 14050B   25357.96373081 -.00000035  00000+0  00000+0 0  9992", "line2": "2 40129  49.0800 279.6897 1649571 173.4584 189.0530  1.85520106 77235"}}, "geometry": {"type": "Point", "coordinates": [-175.39312822068524, -48.99036931485872]}}, {"type": "Feature", "properties": {"norad_id": 40544, "name": "GSAT0203 (GALILEO 7)", "group": "galileo", "lat": -53.010904134456325, "lon": -133.475398615184, "alt_km": 23209.979588384154, "timestamp": "2025-12-25T09:48:52.553340+00:00", "meta": {"OBJECT_NAME": "GSAT0203 (GALILEO 7)", "OBJECT_ID": "2015-017A", "EPOCH": "2025-12-20T21:23:15.511200", "MEAN_MOTION": 1.70475982, "ECCENTRICITY": 0.00064626, "INCLINATION": 56.8444, "RA_OF_ASC_NODE": 346.4578, "ARG_OF_PERICENTER": 274.4172, "MEAN_ANOMALY": 85.5182, "EPHEMERIS_TYPE": 0, "CLASSIFICATION_TYPE": "U", "NORAD_CAT_ID": 40544, "ELEMENT_SET_NO": 999, "REV_AT_EPOCH": 6616, "BSTAR": 0, "MEAN_MOTION_DOT": -6.9e-07, "MEAN_MOTION_DDOT": 0}, "tle": {"line1": "1 40544U 15017A   25354.89115175 -.00000069  00000+0  00000+0 0  9991", "line2": "2 40544  56.8444 346.4578 0006462 274.4172  85.5182  1.70475982 66163"}}, "geometry": {"type": "Point", "coordinates": [-133.475398615184, -53.010904134456325]}}, {"type": "Feature", "properties": {"norad_id": 40545, "name": "GSAT0204 (GALILEO 8)", "group": "galileo", "lat": 56.388376748374895, "lon": 86.88604641835867, "alt_km": 23233.503455470134, "timestamp": "2025-12-25T09:48:52.553352+00:00", "meta": {"OBJECT_NAME": "GSAT0204 (GALILEO 8)", "OBJECT_ID": "2015-017B", "EPOCH": "2025-12-20T13:26:28.826304", "MEAN_MOTION": 1.70475697, "ECCENTRICITY": 0.0006133, "INCLINATION": 56.8522, "RA_OF_ASC_NODE": 346.4847, "ARG_OF_PERICENTER": 266.5447, "MEAN_ANOMALY": 93.3948, "EPHEMERIS_TYPE": 0, "CLASSIFICATION_TYPE": "U", "NORAD_CAT_ID": 40545, "ELEMENT_SET_NO": 999, "REV_AT_EPOCH": 2920, "BSTAR": 0, "MEAN_MOTION_DOT": -7e-07, "MEAN_MOTION_DDOT": 0}, "tle": {"line1": "1 40545U 15017B   25354.56005586 -.00000070  00000+0  00000+0 0  9992", "line2": "2 40545  56.8522 346.4847 0006133 266.5447  93.3948  1.70475697 29206"}}, "geometry": {"type": "Point", "coordinates": [86.88604641835867, 56.388376748374895]}}, {"type": "Feature", "properties": {"norad_id": 40889, "name": "GSAT0205 (GALILEO 9)", "group": "galileo", "lat": -43.975698083493675, "lon": 88.94529058870285, "alt_km": 23245.170926853545, "timestamp": "2025-12-25T09:48:52.553363+00:00", "meta": {"OBJECT_NAME": "GSAT0205 (GALILEO 9)", "OBJECT_ID": "2015-045A", "EPOCH": "2025-12-23T06:16:38.782272", "MEAN_MOTION": 1.70473104, "ECCENTRICITY": 0.00062228, "INCLINATION": 55.0001, "RA_OF_ASC_NODE": 226.4673, "ARG_OF_PERICENTER": 42.5636, "MEAN_ANOMALY": 317.5856, "EPHEMERIS_TYPE": 0, "CLASSIFICATION_TYPE": "U", "NORAD_CAT_ID": 40889, "ELEMENT_SET_NO": 999, "REV_AT_EPOCH": 6401, "BSTAR": 0, "MEAN_MOTION_DOT": 7.3e-07, "MEAN_MOTION_DDOT": 0}, "tle": {"line1": "1 40889U 15045A   25357.26155998  .00000073  00000+0  00000+0 0  9999", "line2": "2 40889  55.0001 226.4673 0006222  42.5636 317.5856  1.70473104 64013"}}, "geometry": {"type": "Point", "coordinates": [88.94529058870285, -43.975698083493675]}}, {"type": "Feature", "properties": {"norad_id": 40890, "name": "GSAT0206 (GALILEO 10)", "group": "galileo", "lat": 53.0649399895803, "lon": -22.301054111524795, "alt_km": 23210.268979165627, "timestamp": "2025-12-25T09:48:52.553374+00:00", "meta": {"OBJECT_NAME": "GSAT0206 (GALILEO 10)", "OBJECT_ID": "2015-045B", "EPOCH": "2025-12-24T01:39:01.990656", "MEAN_MOTION": 1.70473231, "ECCENTRICITY": 0.00040969, "INCLINATION": 54.9989, "RA_OF_ASC_NODE": 226.4401, "ARG_OF_PERICENTER": 41.1407, "MEAN_ANOMALY": 318.987, "EPHEMERIS_TYPE": 0, "CLASSIFICATION_TYPE": "U", "NORAD_CAT_ID": 40890, "ELEMENT_SET_NO": 999, "REV_AT_EPOCH": 6405, "BSTAR": 0, "MEAN_MOTION_DOT": 7.1e-07, "MEAN_MOTION_DDOT": 0}, "tle": {"line1": "1 40890U 15045B   25358.06877304  .00000071  00000+0  00000+0 0  9990", "line2": "2 40890  54.9989 226.4401 0004096  41.1407 318.9870  1.70473231 64051"}}, "geometry": {"type": "Point", "coordinates": [-22.301054111524795, 53.0649399895803]}}, {"type": "Feature", "properties": {"norad_id": 41174, "name": "GSAT0209 (GALILEO 12)", "group": "galileo", "lat": -0.5399795678315178, "lon": 105.66608080870249, "alt_km": 23215.30569582364, "timestamp": "2025-12-25T09:48:52.553386+00:00", "meta": {"OBJECT_NAME": "GSAT0209 (GALILEO 12)", "OBJECT_ID": "2015-079A", "EPOCH": "2025-12-21T21:22:17.332896", "MEAN_MOTION": 1.70474556, "ECCENTRICITY": 0.00025231, "INCLINATION": 55.7178, "RA_OF_ASC_NODE": 106.13, "ARG_OF_PERICENTER": 342.7574, "MEAN_ANOMALY": 17.2091, "EPHEMERIS_TYPE": 0, "CLASSIFICATION_TYPE": "U", "NORAD_CAT_ID": 41174, "ELEMENT_SET_NO": 999, "REV_AT_EPOCH": 6175, "BSTAR": 0, "MEAN_MOTION_DOT": 5e-08, "MEAN_MOTION_DDOT": 0}, "tle": {"line1": "1 41174U 15079A   25355.89047839  .00000005  00000+0  00000+0 0  9990", "line2": "2 41174  55.7178 106.1300 0002523 342.7574  17.2091  1.70474556 61755"}}, "geometry": {"type": "Point", "coordinates": [105.66608080870249, -0.5399795678315178]}}]}